start=new Date('2022-05-29T00:00:00.000Z').valueOf();
sats=[{"MEAN_MOTION_DDOT":"0.0000000000000","OBJECT_NAME":"STARLINK-3533","ECCENTRICITY":"0.00019390","RA_OF_ASC_NODE":"47.7431","TLE_LINE1":"1 51715U 22016B   22148.89529256  .00002078  00000-0  14858-3 0  9999","MEAN_MOTION":"15.08847715","LAUNCH_DATE":"2022-02-21","PERIOD":"95.437","SITE":"AFETR","OBJECT_TYPE":"PAYLOAD","PERIAPSIS":"538.380","APOAPSIS":"541.063","EPHEMERIS_TYPE":"0","COUNTRY_CODE":"US","TLE_LINE2":"2 51715  53.2223  47.7431 0001939  48.0399 312.0759 15.08847715 16100","NORAD_CAT_ID":"51715","CLASSIFICATION_TYPE":"U","CENTER_NAME":"EARTH","EPOCH":"2022-05-28T21:29:13.277184","ELEMENT_SET_NO":"999","MEAN_ELEMENT_THEORY":"SGP4","BSTAR":"0.00014858000000","SEMIMAJOR_AXIS":"6917.857","TIME_SYSTEM":"UTC","INCLINATION":"53.2223","OBJECT_ID":"2022-016B","MEAN_ANOMALY":"312.0759","MEAN_MOTION_DOT":"0.00002078","REV_AT_EPOCH":"1610","DECAY_DATE":null,"RCS_SIZE":"LARGE","REF_FRAME":"TEME","ARG_OF_PERICENTER":"48.0399","FILE":"3469840","GP_ID":"204805311"},{"MEAN_ANOMALY":"28.1158","TIME_SYSTEM":"UTC","INCLINATION":"53.2203","OBJECT_ID":"2022-016C","SEMIMAJOR_AXIS":"6917.759","GP_ID":"204806062","FILE":"3469840","ARG_OF_PERICENTER":"48.1961","REF_FRAME":"TEME","RCS_SIZE":"LARGE","DECAY_DATE":null,"REV_AT_EPOCH":"130","MEAN_MOTION_DOT":"-0.00051207","PERIOD":"95.435","LAUNCH_DATE":"2022-02-21","MEAN_MOTION":"15.08879796","MEAN_MOTION_DDOT":"0.0000000000000","OBJECT_NAME":"STARLINK-3543","ECCENTRICITY":"0.00020030","TLE_LINE1":"1 51716U 22016C   22148.91667824 -.00051207  00000-0 -32187-2 0  9991","RA_OF_ASC_NODE":"47.6518","BSTAR":"-0.00321870000000","MEAN_ELEMENT_THEORY":"SGP4","ELEMENT_SET_NO":"999","EPOCH":"2022-05-28T22:00:00.999936","CLASSIFICATION_TYPE":"U","NORAD_CAT_ID":"51716","CENTER_NAME":"EARTH","COUNTRY_CODE":"US","TLE_LINE2":"2 51716  53.2203  47.6518 0002003  48.1961  28.1158 15.08879796  1301","EPHEMERIS_TYPE":"0","APOAPSIS":"541.009","PERIAPSIS":"538.238","OBJECT_TYPE":"PAYLOAD","SITE":"AFETR"},{"DECAY_DATE":null,"REV_AT_EPOCH":"130","MEAN_MOTION_DOT":"-0.00045997","REF_FRAME":"TEME","RCS_SIZE":"LARGE","FILE":"3469840","ARG_OF_PERICENTER":"52.2804","GP_ID":"204806313","SEMIMAJOR_AXIS":"6917.734","TIME_SYSTEM":"UTC","INCLINATION":"53.2196","OBJECT_ID":"2022-016D","MEAN_ANOMALY":"44.0065","PERIAPSIS":"538.502","OBJECT_TYPE":"PAYLOAD","SITE":"AFETR","TLE_LINE2":"2 51717  53.2196  47.6498 0001586  52.2804  44.0065 15.08887940  1301","COUNTRY_CODE":"US","EPHEMERIS_TYPE":"0","APOAPSIS":"540.696","CLASSIFICATION_TYPE":"U","NORAD_CAT_ID":"51717","CENTER_NAME":"EARTH","BSTAR":"-0.00288670000000","MEAN_ELEMENT_THEORY":"SGP4","ELEMENT_SET_NO":"999","EPOCH":"2022-05-28T22:00:00.999936","MEAN_MOTION_DDOT":"0.0000000000000","OBJECT_NAME":"STARLINK-3445","ECCENTRICITY":"0.00015860","RA_OF_ASC_NODE":"47.6498","TLE_LINE1":"1 51717U 22016D   22148.91667824 -.00045997  00000-0 -28867-2 0  9991","MEAN_MOTION":"15.08887940","LAUNCH_DATE":"2022-02-21","PERIOD":"95.435"},{"OBJECT_ID":"2022-016E","INCLINATION":"53.2163","TIME_SYSTEM":"UTC","SEMIMAJOR_AXIS":"6917.865","MEAN_ANOMALY":"309.7522","REF_FRAME":"TEME","RCS_SIZE":"LARGE","DECAY_DATE":null,"REV_AT_EPOCH":"1602","MEAN_MOTION_DOT":"0.00001255","GP_ID":"204781530","FILE":"3469779","ARG_OF_PERICENTER":"50.3626","MEAN_MOTION":"15.08845151","TLE_LINE1":"1 51718U 22016E   22148.88425086  .00001255  00000-0  96917-4 0  9990","RA_OF_ASC_NODE":"47.7928","OBJECT_NAME":"STARLINK-3546","MEAN_MOTION_DDOT":"0.0000000000000","ECCENTRICITY":"0.00017610","PERIOD":"95.437","LAUNCH_DATE":"2022-02-21","TLE_LINE2":"2 51718  53.2163  47.7928 0001761  50.3626 309.7522 15.08845151 16023","COUNTRY_CODE":"US","APOAPSIS":"540.948","EPHEMERIS_TYPE":"0","OBJECT_TYPE":"PAYLOAD","PERIAPSIS":"538.511","SITE":"AFETR","MEAN_ELEMENT_THEORY":"SGP4","BSTAR":"0.00009691700000","ELEMENT_SET_NO":"999","EPOCH":"2022-05-28T21:13:19.274304","CENTER_NAME":"EARTH","CLASSIFICATION_TYPE":"U","NORAD_CAT_ID":"51718"},{"SITE":"AFETR","OBJECT_TYPE":"PAYLOAD","PERIAPSIS":"538.539","EPHEMERIS_TYPE":"0","APOAPSIS":"540.973","COUNTRY_CODE":"US","TLE_LINE2":"2 51719  53.2213  47.7566 0001759  51.7641 308.3509 15.08836517 16034","NORAD_CAT_ID":"51719","CLASSIFICATION_TYPE":"U","CENTER_NAME":"EARTH","EPOCH":"2022-05-28T21:23:56.019840","ELEMENT_SET_NO":"999","BSTAR":"0.00015658000000","MEAN_ELEMENT_THEORY":"SGP4","MEAN_MOTION_DDOT":"0.0000000000000","OBJECT_NAME":"STARLINK-3540","ECCENTRICITY":"0.00017590","TLE_LINE1":"1 51719U 22016F   22148.89162060  .00002205  00000-0  15658-3 0  9990","RA_OF_ASC_NODE":"47.7566","MEAN_MOTION":"15.08836517","LAUNCH_DATE":"2022-02-21","PERIOD":"95.438","MEAN_MOTION_DOT":"0.00002205","REV_AT_EPOCH":"1603","DECAY_DATE":null,"RCS_SIZE":"LARGE","REF_FRAME":"TEME","ARG_OF_PERICENTER":"51.7641","FILE":"3469777","GP_ID":"204781509","SEMIMAJOR_AXIS":"6917.891","INCLINATION":"53.2213","TIME_SYSTEM":"UTC","OBJECT_ID":"2022-016F","MEAN_ANOMALY":"308.3509"},{"RA_OF_ASC_NODE":"47.8120","TLE_LINE1":"1 51720U 22016G   22148.88057857  .00002825  00000-0  19557-3 0  9998","MEAN_MOTION_DDOT":"0.0000000000000","OBJECT_NAME":"STARLINK-3526","ECCENTRICITY":"0.00019640","MEAN_MOTION":"15.08836557","LAUNCH_DATE":"2022-02-21","PERIOD":"95.438","SITE":"AFETR","OBJECT_TYPE":"PAYLOAD","PERIAPSIS":"538.397","EPHEMERIS_TYPE":"0","APOAPSIS":"541.115","COUNTRY_CODE":"US","TLE_LINE2":"2 51720  53.2178  47.8120 0001964  50.6267 309.4899 15.08836557 14961","CENTER_NAME":"EARTH","NORAD_CAT_ID":"51720","CLASSIFICATION_TYPE":"U","ELEMENT_SET_NO":"999","EPOCH":"2022-05-28T21:08:01.988448","BSTAR":"0.00019557000000","MEAN_ELEMENT_THEORY":"SGP4","SEMIMAJOR_AXIS":"6917.891","OBJECT_ID":"2022-016G","INCLINATION":"53.2178","TIME_SYSTEM":"UTC","MEAN_ANOMALY":"309.4899","MEAN_MOTION_DOT":"0.00002825","REV_AT_EPOCH":"1496","DECAY_DATE":null,"REF_FRAME":"TEME","RCS_SIZE":"LARGE","ARG_OF_PERICENTER":"50.6267","FILE":"3469840","GP_ID":"204805562"},{"MEAN_MOTION_DDOT":"0.0000000000000","ECCENTRICITY":"0.00018270","OBJECT_NAME":"STARLINK-3524","RA_OF_ASC_NODE":"47.7709","TLE_LINE1":"1 51721U 22016H   22148.88793710  .00002264  00000-0  16029-3 0  9992","MEAN_MOTION":"15.08843941","LAUNCH_DATE":"2022-02-21","PERIOD":"95.437","SITE":"AFETR","OBJECT_TYPE":"PAYLOAD","PERIAPSIS":"538.469","APOAPSIS":"540.997","EPHEMERIS_TYPE":"0","TLE_LINE2":"2 51721  53.2212  47.7709 0001827  54.6669 305.4494 15.08843941 14974","COUNTRY_CODE":"US","NORAD_CAT_ID":"51721","CLASSIFICATION_TYPE":"U","CENTER_NAME":"EARTH","ELEMENT_SET_NO":"999","EPOCH":"2022-05-28T21:18:37.765440","MEAN_ELEMENT_THEORY":"SGP4","BSTAR":"0.00016029000000","SEMIMAJOR_AXIS":"6917.868","TIME_SYSTEM":"UTC","INCLINATION":"53.2212","OBJECT_ID":"2022-016H","MEAN_ANOMALY":"305.4494","MEAN_MOTION_DOT":"0.00002264","REV_AT_EPOCH":"1497","DECAY_DATE":null,"REF_FRAME":"TEME","RCS_SIZE":"LARGE","ARG_OF_PERICENTER":"54.6669","FILE":"3469840","GP_ID":"204806814"},{"REF_FRAME":"TEME","RCS_SIZE":"LARGE","MEAN_MOTION_DOT":"0.00000965","REV_AT_EPOCH":"1496","DECAY_DATE":null,"GP_ID":"204807059","ARG_OF_PERICENTER":"44.9212","FILE":"3469840","TIME_SYSTEM":"UTC","INCLINATION":"53.2165","OBJECT_ID":"2022-016J","SEMIMAJOR_AXIS":"6917.882","MEAN_ANOMALY":"315.1912","EPHEMERIS_TYPE":"0","APOAPSIS":"540.876","TLE_LINE2":"2 51722  53.2165  47.8407 0001631  44.9212 315.1912 15.08839346 14963","COUNTRY_CODE":"US","SITE":"AFETR","OBJECT_TYPE":"PAYLOAD","PERIAPSIS":"538.619","EPOCH":"2022-05-28T20:57:26.810208","ELEMENT_SET_NO":"999","MEAN_ELEMENT_THEORY":"SGP4","BSTAR":"0.00007869500000","NORAD_CAT_ID":"51722","CLASSIFICATION_TYPE":"U","CENTER_NAME":"EARTH","MEAN_MOTION":"15.08839346","OBJECT_NAME":"STARLINK-3535","MEAN_MOTION_DDOT":"0.0000000000000","ECCENTRICITY":"0.00016310","RA_OF_ASC_NODE":"47.8407","TLE_LINE1":"1 51722U 22016J   22148.87322697  .00000965  00000-0  78695-4 0  9998","PERIOD":"95.438","LAUNCH_DATE":"2022-02-21"},{"LAUNCH_DATE":"2022-02-21","PERIOD":"91.361","ECCENTRICITY":"0.00081200","MEAN_MOTION_DDOT":"0.0000000000000","OBJECT_NAME":"STARLINK-3531","TLE_LINE1":"1 51723U 22016K   22148.89275058  .00014197  00000-0  92728-4 0  9994","RA_OF_ASC_NODE":"21.0327","MEAN_MOTION":"15.76165415","CLASSIFICATION_TYPE":"U","NORAD_CAT_ID":"51723","CENTER_NAME":"EARTH","BSTAR":"0.00009272800000","MEAN_ELEMENT_THEORY":"SGP4","EPOCH":"2022-05-28T21:25:33.650112","ELEMENT_SET_NO":"999","PERIAPSIS":"335.863","OBJECT_TYPE":"PAYLOAD","SITE":"AFETR","COUNTRY_CODE":"US","TLE_LINE2":"2 51723  53.2231  21.0327 0008120 274.4753  85.5341 15.76165415 16457","APOAPSIS":"346.775","EPHEMERIS_TYPE":"0","MEAN_ANOMALY":"85.5341","SEMIMAJOR_AXIS":"6719.454","INCLINATION":"53.2231","TIME_SYSTEM":"UTC","OBJECT_ID":"2022-016K","FILE":"3469784","ARG_OF_PERICENTER":"274.4753","GP_ID":"204781587","DECAY_DATE":null,"REV_AT_EPOCH":"1645","MEAN_MOTION_DOT":"0.00014197","REF_FRAME":"TEME","RCS_SIZE":"LARGE"},{"FILE":"3469840","ARG_OF_PERICENTER":"60.0136","GP_ID":"204806063","DECAY_DATE":null,"MEAN_MOTION_DOT":"0.00001043","REV_AT_EPOCH":"1496","RCS_SIZE":"LARGE","REF_FRAME":"TEME","MEAN_ANOMALY":"300.1021","SEMIMAJOR_AXIS":"6917.859","INCLINATION":"53.2168","TIME_SYSTEM":"UTC","OBJECT_ID":"2022-016L","CLASSIFICATION_TYPE":"U","NORAD_CAT_ID":"51724","CENTER_NAME":"EARTH","MEAN_ELEMENT_THEORY":"SGP4","BSTAR":"0.00008360000000","ELEMENT_SET_NO":"999","EPOCH":"2022-05-28T20:46:49.558368","PERIAPSIS":"538.578","OBJECT_TYPE":"PAYLOAD","SITE":"AFETR","TLE_LINE2":"2 51724  53.2168  47.8753 0001657  60.0136 300.1021 15.08846883 14963","COUNTRY_CODE":"US","EPHEMERIS_TYPE":"0","APOAPSIS":"540.871","LAUNCH_DATE":"2022-02-21","PERIOD":"95.437","ECCENTRICITY":"0.00016570","MEAN_MOTION_DDOT":"0.0000000000000","OBJECT_NAME":"STARLINK-3529","TLE_LINE1":"1 51724U 22016L   22148.86585137  .00001043  00000-0  83600-4 0  9999","RA_OF_ASC_NODE":"47.8753","MEAN_MOTION":"15.08846883"}];
